STARLINK-1356           
1 45564U 20025AK  24251.64818230 -.00001006  00000+0 -48706-4 0  9996
2 45564  53.0563  26.8712 0001224 102.2249 257.8877 15.06387352242768
STARLINK-1357           
1 45565U 20025AL  24251.64079466  .00020911  00000+0  14197-2 0  9996
2 45565  53.0552  26.9056 0001293  91.7332 268.3805 15.06370687242761
STARLINK-1358           
1 45566U 20025AM  24251.65555449 -.00000411  00000+0 -87055-5 0  9999
2 45566  53.0564  26.8371 0001626  86.1403 273.9772 15.06402155242762
STARLINK-1361           
1 45567U 20025AN  24251.79929750  .00001035  00000+0  88344-4 0  9997
2 45567  53.0552  26.1957 0001313  96.4591 263.6547 15.06396712242798
STARLINK-1363           
1 45568U 20025AP  24251.68138956 -.00001968  00000+0 -11334-3 0  9997
2 45568  53.0560  26.9684 0001466  98.7276 261.3879 15.06381175242764
STARLINK-1366           
1 45569U 20025AQ  24251.67029088  .00023461  00000+0  15906-2 0  9990
2 45569  53.0562  26.7732 0001442  74.9312 285.1837 15.06354362242766
STARLINK-1376           
1 45570U 20025AR  24251.66292673 -.00003024  00000+0 -18427-3 0  9990
2 45570  53.0555  26.7962 0001279  97.3061 262.8074 15.06380924242761
STARLINK-1320           
1 45572U 20025AT  24251.72513348  .00001385  00000+0  11195-3 0  9995
2 45572  53.0563  11.5340 0001536 106.1713 253.9445 15.06370858242996
STARLINK-1321           
1 45573U 20025AU  24251.64910414 -.00000464  00000+0 -12257-4 0  9992
2 45573  53.0561  16.8730 0001476 100.0444 260.0712 15.06383601242607
STARLINK-1328           
1 45576U 20025AX  24251.63436086  .00007072  00000+0  49344-3 0  9998
2 45576  53.0568  16.9323 0000991  61.8573 298.2516 15.06378096242915
STARLINK-1331           
1 45578U 20025AZ  24251.75969091  .00034622  00000+0  23325-2 0  9991
2 45578  53.0557  16.3685 0001289  75.6424 284.4708 15.06389612242937
STARLINK-1332           
1 45579U 20025BA  24251.56803165 -.00000977  00000+0 -46728-4 0  9992
2 45579  53.0558 337.3963 0001496 100.1536 259.9622 15.06397410243457
STARLINK-1333           
1 45580U 20025BB  24251.76613734 -.00000349  00000+0 -45641-5 0  9994
2 45580  53.0563  26.3432 0001357  81.7921 278.3221 15.06373535242786
STARLINK-1335           
1 45581U 20025BC  24251.63803853  .00008608  00000+0  59616-3 0  9993
2 45581  53.0557  16.9112 0001395  82.1365 277.9782 15.06395544242904
STARLINK-1337           
1 45582U 20025BD  24251.72651831  .00017941  00000+0  12203-2 0  9991
2 45582  53.0552  16.5191 0001180  74.6172 285.4948 15.06399939242918
STARLINK-1347           
1 45586U 20025BH  24251.65278940 -.00002929  00000+0 -17795-3 0  9997
2 45586  53.0563  16.8543 0001341 105.6356 254.4781 15.06379213242897
STARLINK-1349           
1 45587U 20025BJ  24251.75599765  .00010541  00000+0  72514-3 0  9997
2 45587  53.0561  16.3851 0001390  82.4566 277.6581 15.06417382242921
STARLINK-1360           
1 45588U 20025BK  24251.73237572  .00009841  00000+0  69366-3 0  9993
2 45588  53.0562  16.4915 0001161  89.0048 271.1074 15.05577155242918
STARLINK-1364           
1 45589U 20025BL  24251.73020194  .00018865  00000+0  12829-2 0  9991
2 45589  53.0554  16.5025 0000925 110.7117 249.3971 15.06372349242911
STARLINK-1365           
1 45590U 20025BM  24251.87853452  .00034249  00000+0  23083-2 0  9997
2 45590  53.0545  45.8385 0001249  60.5652 299.5461 15.06379208242533
STARLINK-1443           
1 45660U 20035D   24251.73109092  .00030417  00000+0  20546-2 0  9999
2 45660  53.0553   6.5033 0001390  80.2540 279.8606 15.06354713236142
STARLINK-1444           
1 45661U 20035E   24251.91668981  .00089267  00000+0  31409-2 0  9994
2 45661  53.0659 346.7879 0003423 334.2985 266.2618 15.28593323  5694
STARLINK-1445           
1 45662U 20035F   24251.69795068  .00041163  00000+0  27662-2 0  9996
2 45662  53.0559   6.6529 0001253  84.8773 275.2359 15.06400289236131
STARLINK-1446           
1 45663U 20035G   24251.74049255  .00049197  00000+0  31113-2 0  9994
2 45663  53.0565   6.1709 0001400 357.1543   2.9439 15.08558029236142
STARLINK-1448           
1 45665U 20035J   24251.60210043  .00012655  00000+0  86704-3 0  9992
2 45665  53.0559   7.0803 0001387  97.0268 263.0878 15.06395427236113
STARLINK-1449           
1 45666U 20035K   24251.56402102  .00086863  00000+0  32909-2 0  9996
2 45666  53.0439 347.9298 0002731   4.2278 355.8742 15.26171643236383
STARLINK-1451           
1 45668U 20035M   24251.73851919  .00006879  00000+0  48024-3 0  9996
2 45668  53.0553   6.7834 0001374 103.5288 256.5854 15.06400181236149
STARLINK-1452           
1 45669U 20035N   24251.62422383  .00032124  00000+0  21670-2 0  9993
2 45669  53.0555   6.9779 0001652  34.5044 325.6052 15.06377751236126
STARLINK-1453           
1 45670U 20035P   24251.61592657 -.00000539  00000+0 -17280-4 0  9997
2 45670  53.0557 337.0217 0001361  88.9249 271.1896 15.06389450236436
STARLINK-1454           
1 45671U 20035Q   24251.69423612  .00035838  00000+0  24120-2 0  9997
2 45671  53.0561   6.6661 0000554   0.5082 359.5907 15.06410001236129
STARLINK-1455           
1 45672U 20035R   24251.91668981  .00317864  00000+0  14054-2 0  9990
2 45672  53.0456 308.9090 0011115  14.7179 227.0320 15.82980134  6087
STARLINK-1456           
1 45673U 20035S   24251.70901124  .00031100  00000+0  20984-2 0  9992
2 45673  53.0559   6.5993 0001407  76.8806 283.2340 15.06385576236147
STARLINK-1457           
1 45674U 20035T   24251.71637284  .00020274  00000+0  13760-2 0  9991
2 45674  53.0558   6.5689 0001312  93.2362 266.8777 15.06401829236112
STARLINK-1458           
1 45675U 20035U   24251.63897605  .00002042  00000+0  15601-3 0  9998
2 45675  53.0558   6.9193 0001361  81.1810 278.9333 15.06384388236094
STARLINK-1460           
1 45676U 20035V   24251.74217964 -.00000209  00000+0  48284-5 0  9994
2 45676  53.0557   6.4477 0001131  82.5541 277.5577 15.06382168236106
STARLINK-1392           
1 45677U 20035W   24251.62054209  .00005889  00000+0  41408-3 0  9990
2 45677  53.0555   6.9952 0001180  82.1447 277.9676 15.06382233236122
STARLINK-1393           
1 45678U 20035X   24251.61409894  .00001538  00000+0  12224-3 0  9995
2 45678  53.0561 357.0254 0001494  82.7407 277.3752 15.06364597236240
STARLINK-1394           
1 45679U 20035Y   24251.61775638  .00006569  00000+0  45918-3 0  9993
2 45679  53.0562 357.0129 0000860  79.5338 280.5747 15.06426168236261
STARLINK-1395           
1 45680U 20035Z   24251.55877850  .00029236  00000+0  19720-2 0  9994
2 45680  53.0546 357.2764 0000958  91.9188 268.1910 15.06427992235844
STARLINK-1397           
1 45682U 20035AB  24251.69516943  .00042247  00000+0  28401-2 0  9997
2 45682  53.0549 356.6649 0002198  31.5089 328.6031 15.06373665236262
STARLINK-1399           
1 45683U 20035AC  24251.61040208  .00002244  00000+0  16956-3 0  9992
2 45683  53.0565 357.0382 0001298 104.4762 255.6371 15.06384465236264
STARLINK-1401           
1 45684U 20035AD  24251.91668981  .00141286  00000+0  30805-2 0  9998
2 45684  53.0482 299.2671 0007141 335.0199 189.9049 15.43242361  5893
STARLINK-1402           
1 45685U 20035AE  24251.58217995  .00039929  00000+0  26833-2 0  9993
2 45685  53.0566 351.5916 0001376 102.9730 257.1412 15.06414552236347
STARLINK-1404           
1 45686U 20035AF  24251.70991775  .00004967  00000+0  35211-3 0  9998
2 45686  53.0560 356.5952 0001459 102.2699 257.8454 15.06401596236286
STARLINK-1408           
1 45688U 20035AH  24251.91668981  .00163074  00000+0  33211-2 0  9995
2 45688  53.0759 266.6350 0003360  98.6265 342.1824 15.45179063  5840
STARLINK-1413           
1 45689U 20035AJ  24251.59566523  .00018118  00000+0  12325-2 0  9990
2 45689  53.0559 357.1090 0001182  97.2430 262.8693 15.06388682236175
STARLINK-1414           
1 45690U 20035AK  24251.68783095  .00045925  00000+0  30819-2 0  9991
2 45690  53.0556 356.9173 0001206  73.9835 286.1287 15.06401379236212
STARLINK-1416           
1 45692U 20035AM  24251.91668981  .00619545  00000+0  20381-2 0  9993
2 45692  53.0516 334.4714 0001357  71.6141 309.0022 15.88434986  5917
STARLINK-1417           
1 45693U 20035AN  24251.59196606  .00032405  00000+0  21846-2 0  9999
2 45693  53.0555 357.1255 0001534  53.5500 306.5630 15.06396823236255
STARLINK-1420           
1 45695U 20035AQ  24251.52652273  .00017649  00000+0  12014-2 0  9991
2 45695  53.0566 337.4151 0000742 105.4086 254.6985 15.06379876236537
STARLINK-1422           
1 45696U 20035AR  24251.66935813  .00028389  00000+0  19145-2 0  9996
2 45696  53.0551 356.7797 0001252  85.7802 274.3330 15.06450532236267
STARLINK-1351           
1 45697U 20035AS  24251.51272367  .00035168  00000+0  23685-2 0  9996
2 45697  53.0560 337.4814 0001208  89.0431 271.0697 15.06393985236538
STARLINK-1398           
1 45699U 20035AU  24251.62328960  .00043209  00000+0  29017-2 0  9991
2 45699  53.0547 336.9891 0001942  60.0190 300.0991 15.06403254236542
STARLINK-1400           
1 45700U 20035AV  24251.55326764  .00001085  00000+0  91727-4 0  9991
2 45700  53.0555 337.2997 0001484  97.6424 262.4733 15.06389999236535
STARLINK-1403           
1 45701U 20035AW  24251.51640547  .00000001  00000+0  18946-4 0  9995
2 45701  53.0561 337.4614 0001466 102.7937 257.3215 15.06390460236520
STARLINK-1405           
1 45702U 20035AX  24251.56432051  .00024395  00000+0  16513-2 0  9998
2 45702  53.0541 337.2539 0001328  69.6869 290.4262 15.06392116236536
STARLINK-1407           
1 45703U 20035AY  24251.56061113  .00037365  00000+0  25088-2 0  9994
2 45703  53.0536 337.2686 0001403  98.9935 261.1213 15.06478533236536
STARLINK-1411           
1 45706U 20035BB  24251.53852115  .00000763  00000+0  70104-4 0  9997
2 45706  53.0559 337.3657 0001343 112.4085 247.7046 15.06392021236120
STARLINK-1412           
1 45707U 20035BC  24251.53290307  .00005424  00000+0  37822-3 0  9995
2 45707  53.0566 337.3750 0001405  90.8215 269.2935 15.06847978236533
